[{"OBJECT_NAME":"STARLINK-34706","OBJECT_ID":"2025-152D","EPOCH":"2026-03-09T13:21:56.917728","MEAN_MOTION":15.0566891,"ECCENTRICITY":0.00016781,"INCLINATION":97.6018,"RA_OF_ASC_NODE":285.3179,"ARG_OF_PERICENTER":78.6066,"MEAN_ANOMALY":281.5349,"EPHEMERIS_TYPE":0,"CLASSIFICATION_TYPE":"U","NORAD_CAT_ID":64845,"ELEMENT_SET_NO":999,"REV_AT_EPOCH":3539,"BSTAR":-2.7094144e-5,"MEAN_MOTION_DOT":-4.52e-6,"MEAN_MOTION_DDOT":0},{"OBJECT_NAME":"OBJECT D","OBJECT_ID":"2018-099D","EPOCH":"2026-03-09T21:55:11.400096","MEAN_MOTION":15.0608919,"ECCENTRICITY":0.00104801,"INCLINATION":97.4323,"RA_OF_ASC_NODE":113.3477,"ARG_OF_PERICENTER":333.2621,"MEAN_ANOMALY":26.8065,"EPHEMERIS_TYPE":0,"CLASSIFICATION_TYPE":"U","NORAD_CAT_ID":43761,"ELEMENT_SET_NO":999,"REV_AT_EPOCH":39716,"BSTAR":0.0002280609,"MEAN_MOTION_DOT":3.276e-5,"MEAN_MOTION_DDOT":0}]
